start=new Date('2023-06-23T00:00:00.000Z').valueOf();
sats=[{"MEAN_MOTION_DDOT":"0.0000000000000","ARG_OF_PERICENTER":"78.3203","OBJECT_TYPE":"PAYLOAD","EPHEMERIS_TYPE":"0","RCS_SIZE":"LARGE","MEAN_ELEMENT_THEORY":"SGP4","INCLINATION":"53.0527","BSTAR":"0.00021102000000","ECCENTRICITY":"0.00012770","FILE":"3939484","TLE_LINE2":"2 48681  53.0527 213.8619 0001277  78.3203 281.7929 15.06396006115686","OBJECT_ID":"2021-044AV","MEAN_MOTION":"15.06396006","SITE":"AFETR","MEAN_ANOMALY":"281.7929","CENTER_NAME":"EARTH","EPOCH":"2023-06-21T23:17:15.135648","SEMIMAJOR_AXIS":"6925.361","REF_FRAME":"TEME","DECAY_DATE":null,"TLE_LINE1":"1 48681U 21044AV  23172.97031407  .00002863  00000-0  21102-3 0  9992","ELEMENT_SET_NO":"999","RA_OF_ASC_NODE":"213.8619","PERIOD":"95.592","CLASSIFICATION_TYPE":"U","MEAN_MOTION_DOT":"0.00002863","APOAPSIS":"548.110","REV_AT_EPOCH":"11568","GP_ID":"234447435","PERIAPSIS":"546.341","COUNTRY_CODE":"US","TIME_SYSTEM":"UTC","NORAD_CAT_ID":"48681","OBJECT_NAME":"STARLINK-2725","LAUNCH_DATE":"2021-05-26"},{"EPOCH":"2023-06-22T02:24:19.972224","CENTER_NAME":"EARTH","MEAN_ANOMALY":"278.7428","SITE":"AFETR","MEAN_MOTION":"15.06395771","OBJECT_ID":"2021-044AW","TLE_LINE2":"2 48682  53.0522 203.1997 0001011  81.3676 278.7428 15.06395771115786","FILE":"3939487","ECCENTRICITY":"0.00010110","BSTAR":"0.00007650600000","INCLINATION":"53.0522","MEAN_ELEMENT_THEORY":"SGP4","RCS_SIZE":"LARGE","OBJECT_TYPE":"PAYLOAD","EPHEMERIS_TYPE":"0","ARG_OF_PERICENTER":"81.3676","MEAN_MOTION_DDOT":"0.0000000000000","LAUNCH_DATE":"2021-05-26","NORAD_CAT_ID":"48682","OBJECT_NAME":"STARLINK-2743","TIME_SYSTEM":"UTC","COUNTRY_CODE":"US","PERIAPSIS":"546.526","GP_ID":"234447486","REV_AT_EPOCH":"11578","APOAPSIS":"547.927","MEAN_MOTION_DOT":"0.00000858","CLASSIFICATION_TYPE":"U","PERIOD":"95.592","RA_OF_ASC_NODE":"203.1997","DECAY_DATE":null,"TLE_LINE1":"1 48682U 21044AW  23173.10023116  .00000858  00000-0  76506-4 0  9998","ELEMENT_SET_NO":"999","REF_FRAME":"TEME","SEMIMAJOR_AXIS":"6925.362"},{"ARG_OF_PERICENTER":"88.2834","MEAN_MOTION_DDOT":"0.0000000000000","OBJECT_TYPE":"PAYLOAD","EPHEMERIS_TYPE":"0","RCS_SIZE":"LARGE","MEAN_ELEMENT_THEORY":"SGP4","INCLINATION":"53.0527","BSTAR":"0.00015141000000","FILE":"3939493","ECCENTRICITY":"0.00012310","TLE_LINE2":"2 48683  53.0527 203.2449 0001231  88.2834 271.8296 15.06397917115782","OBJECT_ID":"2021-044AX","MEAN_MOTION":"15.06397917","SITE":"AFETR","MEAN_ANOMALY":"271.8296","CENTER_NAME":"EARTH","EPOCH":"2023-06-22T01:20:36.648672","SEMIMAJOR_AXIS":"6925.355","REF_FRAME":"TEME","TLE_LINE1":"1 48683U 21044AX  23173.05597973  .00001974  00000-0  15141-3 0  9997","DECAY_DATE":null,"ELEMENT_SET_NO":"999","RA_OF_ASC_NODE":"203.2449","PERIOD":"95.592","CLASSIFICATION_TYPE":"U","MEAN_MOTION_DOT":"0.00001974","APOAPSIS":"548.072","REV_AT_EPOCH":"11578","GP_ID":"234448036","PERIAPSIS":"546.367","COUNTRY_CODE":"US","TIME_SYSTEM":"UTC","OBJECT_NAME":"STARLINK-2756","NORAD_CAT_ID":"48683","LAUNCH_DATE":"2021-05-26"},{"LAUNCH_DATE":"2021-05-26","NORAD_CAT_ID":"48684","OBJECT_NAME":"STARLINK-2741","GP_ID":"234454299","REV_AT_EPOCH":"11568","COUNTRY_CODE":"US","TIME_SYSTEM":"UTC","PERIAPSIS":"546.380","MEAN_MOTION_DOT":"0.00001740","APOAPSIS":"548.024","CLASSIFICATION_TYPE":"U","TLE_LINE1":"1 48684U 21044AY  23173.41033257  .00001740  00000-0  13567-3 0  9999","DECAY_DATE":null,"ELEMENT_SET_NO":"999","REF_FRAME":"TEME","PERIOD":"95.592","RA_OF_ASC_NODE":"216.9984","SEMIMAJOR_AXIS":"6925.337","EPOCH":"2023-06-22T09:50:52.734048","CENTER_NAME":"EARTH","MEAN_ANOMALY":"271.8498","TLE_LINE2":"2 48684  53.0525 216.9984 0001187  88.2627 271.8498 15.06403734115684","FILE":"3939765","ECCENTRICITY":"0.00011870","SITE":"AFETR","MEAN_MOTION":"15.06403734","OBJECT_ID":"2021-044AY","MEAN_ELEMENT_THEORY":"SGP4","BSTAR":"0.00013567000000","INCLINATION":"53.0525","RCS_SIZE":"LARGE","OBJECT_TYPE":"PAYLOAD","EPHEMERIS_TYPE":"0","MEAN_MOTION_DDOT":"0.0000000000000","ARG_OF_PERICENTER":"88.2627"},{"CLASSIFICATION_TYPE":"U","RA_OF_ASC_NODE":"203.1202","PERIOD":"95.592","REF_FRAME":"TEME","DECAY_DATE":null,"TLE_LINE1":"1 48685U 21044AZ  23173.09284987  .00003503  00000-0  25390-3 0  9998","ELEMENT_SET_NO":"999","SEMIMAJOR_AXIS":"6925.336","NORAD_CAT_ID":"48685","OBJECT_NAME":"STARLINK-2751","LAUNCH_DATE":"2021-05-26","PERIAPSIS":"546.185","TIME_SYSTEM":"UTC","COUNTRY_CODE":"US","REV_AT_EPOCH":"11579","GP_ID":"234449414","APOAPSIS":"548.217","MEAN_MOTION_DOT":"0.00003503","INCLINATION":"53.0536","BSTAR":"0.00025390000000","MEAN_ELEMENT_THEORY":"SGP4","RCS_SIZE":"LARGE","OBJECT_TYPE":"PAYLOAD","EPHEMERIS_TYPE":"0","MEAN_MOTION_DDOT":"0.0000000000000","ARG_OF_PERICENTER":"81.4857","CENTER_NAME":"EARTH","EPOCH":"2023-06-22T02:13:42.228768","MEAN_ANOMALY":"278.6298","OBJECT_ID":"2021-044AZ","MEAN_MOTION":"15.06404164","SITE":"AFETR","ECCENTRICITY":"0.00014670","FILE":"3939564","TLE_LINE2":"2 48685  53.0536 203.1202 0001467  81.4857 278.6298 15.06404164115792"},{"TLE_LINE2":"2 48686  53.0505 208.3725 0001274  86.8030 273.3105 15.06398501115778","ECCENTRICITY":"0.00012740","FILE":"3939427","SITE":"AFETR","OBJECT_ID":"2021-044BA","MEAN_MOTION":"15.06398501","EPOCH":"2023-06-22T02:05:06.775872","CENTER_NAME":"EARTH","MEAN_ANOMALY":"273.3105","OBJECT_TYPE":"PAYLOAD","EPHEMERIS_TYPE":"0","ARG_OF_PERICENTER":"86.8030","MEAN_MOTION_DDOT":"0.0000000000000","MEAN_ELEMENT_THEORY":"SGP4","BSTAR":"0.00019296000000","INCLINATION":"53.0505","RCS_SIZE":"LARGE","GP_ID":"234445719","REV_AT_EPOCH":"11577","TIME_SYSTEM":"UTC","COUNTRY_CODE":"US","PERIAPSIS":"546.336","MEAN_MOTION_DOT":"0.00002594","APOAPSIS":"548.100","LAUNCH_DATE":"2021-05-26","NORAD_CAT_ID":"48686","OBJECT_NAME":"STARLINK-2629","SEMIMAJOR_AXIS":"6925.353","CLASSIFICATION_TYPE":"U","TLE_LINE1":"1 48686U 21044BA  23173.08688398  .00002594  00000-0  19296-3 0  9999","DECAY_DATE":null,"ELEMENT_SET_NO":"999","REF_FRAME":"TEME","PERIOD":"95.592","RA_OF_ASC_NODE":"208.3725"},{"SEMIMAJOR_AXIS":"6925.372","CLASSIFICATION_TYPE":"U","REF_FRAME":"TEME","DECAY_DATE":null,"TLE_LINE1":"1 48687U 21044BB  23173.06197245  .00001322  00000-0  10762-3 0  9991","ELEMENT_SET_NO":"999","RA_OF_ASC_NODE":"198.2099","PERIOD":"95.593","REV_AT_EPOCH":"11585","GP_ID":"234448127","PERIAPSIS":"546.348","TIME_SYSTEM":"UTC","COUNTRY_CODE":"US","MEAN_MOTION_DOT":"0.00001322","APOAPSIS":"548.126","NORAD_CAT_ID":"48687","OBJECT_NAME":"STARLINK-2627","LAUNCH_DATE":"2021-05-26","EPHEMERIS_TYPE":"0","OBJECT_TYPE":"PAYLOAD","ARG_OF_PERICENTER":"90.7044","MEAN_MOTION_DDOT":"0.0000000000000","MEAN_ELEMENT_THEORY":"SGP4","INCLINATION":"53.0534","BSTAR":"0.00010762000000","RCS_SIZE":"LARGE","FILE":"3939498","ECCENTRICITY":"0.00012840","TLE_LINE2":"2 48687  53.0534 198.2099 0001284  90.7044 269.4092 15.06392301115854","OBJECT_ID":"2021-044BB","MEAN_MOTION":"15.06392301","SITE":"AFETR","CENTER_NAME":"EARTH","EPOCH":"2023-06-22T01:29:14.419680","MEAN_ANOMALY":"269.4092"},{"SEMIMAJOR_AXIS":"6925.361","DECAY_DATE":null,"TLE_LINE1":"1 48688U 21044BC  23173.06565532  .00001543  00000-0  12245-3 0  9993","ELEMENT_SET_NO":"999","REF_FRAME":"TEME","PERIOD":"95.592","RA_OF_ASC_NODE":"198.1869","CLASSIFICATION_TYPE":"U","MEAN_MOTION_DOT":"0.00001543","APOAPSIS":"547.966","GP_ID":"234448125","REV_AT_EPOCH":"11585","TIME_SYSTEM":"UTC","COUNTRY_CODE":"US","PERIAPSIS":"546.485","LAUNCH_DATE":"2021-05-26","OBJECT_NAME":"STARLINK-2742","NORAD_CAT_ID":"48688","ARG_OF_PERICENTER":"88.2427","MEAN_MOTION_DDOT":"0.0000000000000","OBJECT_TYPE":"PAYLOAD","EPHEMERIS_TYPE":"0","RCS_SIZE":"LARGE","MEAN_ELEMENT_THEORY":"SGP4","BSTAR":"0.00012245000000","INCLINATION":"53.0519","TLE_LINE2":"2 48688  53.0519 198.1869 0001069  88.2427 271.8684 15.06396091115854","ECCENTRICITY":"0.00010690","FILE":"3939498","SITE":"AFETR","MEAN_MOTION":"15.06396091","OBJECT_ID":"2021-044BC","MEAN_ANOMALY":"271.8684","EPOCH":"2023-06-22T01:34:32.619648","CENTER_NAME":"EARTH"},{"EPHEMERIS_TYPE":"0","OBJECT_TYPE":"PAYLOAD","MEAN_MOTION_DDOT":"0.0000000000000","ARG_OF_PERICENTER":"92.4965","INCLINATION":"53.0526","BSTAR":"0.00010685000000","MEAN_ELEMENT_THEORY":"SGP4","RCS_SIZE":"LARGE","MEAN_MOTION":"15.06394781","OBJECT_ID":"2021-044BD","SITE":"AFETR","FILE":"3939499","ECCENTRICITY":"0.00014910","TLE_LINE2":"2 48689  53.0526 203.7325 0001491  92.4965 267.6195 15.06394781115760","CENTER_NAME":"EARTH","EPOCH":"2023-06-21T22:30:45.436896","MEAN_ANOMALY":"267.6195","SEMIMAJOR_AXIS":"6925.365","CLASSIFICATION_TYPE":"U","RA_OF_ASC_NODE":"203.7325","PERIOD":"95.592","REF_FRAME":"TEME","TLE_LINE1":"1 48689U 21044BD  23172.93802589  .00001310  00000-0  10685-3 0  9993","DECAY_DATE":null,"ELEMENT_SET_NO":"999","PERIAPSIS":"546.197","COUNTRY_CODE":"US","TIME_SYSTEM":"UTC","REV_AT_EPOCH":"11576","GP_ID":"234447635","APOAPSIS":"548.262","MEAN_MOTION_DOT":"0.00001310","OBJECT_NAME":"STARLINK-2617","NORAD_CAT_ID":"48689","LAUNCH_DATE":"2021-05-26"},{"RCS_SIZE":"LARGE","BSTAR":"0.00018240000000","INCLINATION":"53.0541","MEAN_ELEMENT_THEORY":"SGP4","MEAN_MOTION_DDOT":"0.0000000000000","ARG_OF_PERICENTER":"98.6688","EPHEMERIS_TYPE":"0","OBJECT_TYPE":"PAYLOAD","MEAN_ANOMALY":"261.4462","EPOCH":"2023-06-22T01:51:07.688448","CENTER_NAME":"EARTH","SITE":"AFETR","MEAN_MOTION":"15.06400480","OBJECT_ID":"2021-044BE","TLE_LINE2":"2 48690  53.0541 213.1423 0001421  98.6688 261.4462 15.06400480115703","ECCENTRICITY":"0.00014210","FILE":"3939576","PERIOD":"95.592","RA_OF_ASC_NODE":"213.1423","DECAY_DATE":null,"TLE_LINE1":"1 48690U 21044BE  23173.07717232  .00002436  00000-0  18240-3 0  9996","ELEMENT_SET_NO":"999","REF_FRAME":"TEME","CLASSIFICATION_TYPE":"U","SEMIMAJOR_AXIS":"6925.347","LAUNCH_DATE":"2021-05-26","OBJECT_NAME":"STARLINK-2740","NORAD_CAT_ID":"48690","APOAPSIS":"548.196","MEAN_MOTION_DOT":"0.00002436","COUNTRY_CODE":"US","TIME_SYSTEM":"UTC","PERIAPSIS":"546.228","GP_ID":"234450054","REV_AT_EPOCH":"11570"}];
